NORAD_CAT_ID,OBJECT_NAME,OBJECT_TYPE,EPOCH,MEAN_MOTION,ECCENTRICITY,INCLINATION,RA_OF_ASC_NODE,ARG_OF_PERICENTER,MEAN_ANOMALY,BSTAR,MEAN_MOTION_DOT,MEAN_MOTION_DDOT,TLE_LINE0,TLE_LINE1,TLE_LINE2,SEMIMAJOR_AXIS,PERIOD,APOGEE,PERIGEE,DECAYED
53853.0,STARLINK-4794,PAYLOAD,2022-11-06 14:00:01,15.73121481,0.0003721,53.2157,18.5627,7.2033,352.7967,0.0004598,0.00064204,0.0,0 STARLINK-4794,1 53853U 22114AM  22310.58334491  .00064204  00000-0  45980-3 0  9994,2 53853  53.2157  18.5627 0003721   7.2033 352.7967 15.73121481  1302,6728.119000000002,91.538,352.48800000000006,347.481,0.0
53853.0,STARLINK-4794,PAYLOAD,2022-11-07 00:00:00,15.73192982,0.0003505,53.2153,16.4989,4.6581,196.4314,1.4334e-05,1.388e-05,0.0,0 STARLINK-4794,1 53853U 22114AM  22311.00001157  .00001388  00000-0  14334-4 0  9996,2 53853  53.2153  16.4989 0003505   4.6581 196.4314 15.73192982  8282,6727.915,91.534,352.13800000000015,347.422,0.0
53853.0,STARLINK-4794,PAYLOAD,2022-11-07 22:00:00,15.7325356,0.000369,53.2156,11.9632,3.8009,351.8542,-0.00063841,-0.00089518,0.0,0 STARLINK-4794,1 53853U 22114AM  22311.91667824 -.00089518  00000-0 -63841-3 0  9994,2 53853  53.2156  11.9632 0003690   3.8009 351.8542 15.73253560  1307,6727.7419999999975,91.53,352.09,347.125,0.0
53853.0,STARLINK-4794,PAYLOAD,2022-11-08 00:00:02,15.73235888,0.0003691,53.2155,11.5503,4.2337,103.7659,5.2517e-05,6.766e-05,0.0,0 STARLINK-4794,1 53853U 22114AM  22312.00002315  .00006766  00000-0  52517-4 0  9994,2 53853  53.2155  11.5503 0003691   4.2337 103.7659 15.73235888  8447,6727.793000000002,91.531,352.141,347.175,0.0
53853.0,STARLINK-4794,PAYLOAD,2022-11-08 10:00:01,15.7328985,0.0003953,53.2154,9.4896,7.422999999999999,301.8167,0.000121,0.00016462,0.0,0 STARLINK-4794,1 53853U 22114AM  22312.41668981  .00016462  00000-0  12100-3 0  9993,2 53853  53.2154   9.4896 0003953   7.4230 301.8167 15.73289850  8505,6727.639,91.528,352.163,346.845,0.0
53853.0,STARLINK-4794,PAYLOAD,2022-11-08 14:00:01,15.73284571,0.0004034,53.2155,8.6655,5.6972,167.9946,0.00017755,0.00024466,0.0,0 STARLINK-4794,1 53853U 22114AM  22312.58334491  .00024466  00000-0  17755-3 0  9991,2 53853  53.2155   8.6655 0004034   5.6972 167.9946 15.73284571  1306,6727.654,91.528,352.233,346.805,0.0
53853.0,STARLINK-4794,PAYLOAD,2022-11-08 22:00:00,15.733205900000002,0.0003819,53.2151,7.0139,2.1283,260.6036,-0.00089491,-0.00125077,0.0,0 STARLINK-4794,1 53853U 22114AM  22312.91667824 -.00125077  00000-0 -89491-3 0  9995,2 53853  53.2151   7.0139 0003819   2.1283 260.6036 15.73320590  8589,6727.551,91.526,351.986,346.847,0.0
53853.0,STARLINK-4794,PAYLOAD,2022-11-09 14:00:01,15.73036294,0.0004103,53.215,3.7166,4.6907,75.97399999999998,0.00062048,0.00086781,0.0,0 STARLINK-4794,1 53853U 22114AM  22313.58334491  .00086781  00000-0  62048-3 0  9995,2 53853  53.2150   3.7166 0004103   4.6907  75.9740 15.73036294  1305,6728.361999999999,91.543,352.98800000000006,347.466,0.0
53853.0,STARLINK-4794,PAYLOAD,2022-11-09 22:00:01,15.73098712,0.0003979,53.2153,2.0652,3.1968,166.2997,-9.0034e-05,-0.00013191,0.0,0 STARLINK-4794,1 53853U 22114AM  22313.91668981 -.00013191  00000-0 -90034-4 0  9990,2 53853  53.2153   2.0652 0003979   3.1968 166.2997 15.73098712  8747,6728.184,91.539,352.726,347.372,0.0
53853.0,STARLINK-4794,PAYLOAD,2022-11-10 14:00:01,15.73096188,0.0004343999999999,53.215,358.7685,5.2144,341.8273,0.00079414,0.0011187,0.0,0 STARLINK-4794,1 53853U 22114AM  22314.58334491  .00111870  00000-0  79414-3 0  9999,2 53853  53.2150 358.7685 0004344   5.2144 341.8273 15.73096188  1305,6728.191,91.539,352.97900000000016,347.1330000000001,0.0
53853.0,STARLINK-4794,PAYLOAD,2022-11-10 22:00:00,15.73151226,0.0004084,53.2149,357.1171,5.9655,69.9342,0.00066147,0.00093083,0.0,0 STARLINK-4794,1 53853U 22114AM  22314.91667824  .00093083  00000-0  66147-3 0  9999,2 53853  53.2149 357.1171 0004084   5.9655  69.9342 15.73151226  8904,6728.034000000002,91.536,352.647,347.152,0.0
53853.0,STARLINK-4794,PAYLOAD,2022-11-11 14:00:01,15.73268585,0.0004368,53.2147,353.8198,6.2777,247.493,7.3889e-05,9.792e-05,0.0,0 STARLINK-4794,1 53853U 22114AM  22315.58334491  .00009792  00000-0  73889-4 0  9990,2 53853  53.2147 353.8198 0004368   6.2777 247.4930 15.73268585  1308,6727.7,91.529,352.50300000000016,346.626,0.0
53853.0,STARLINK-4794,PAYLOAD,2022-11-11 16:00:01,15.73301586,0.0004374,53.2146,353.4069,5.7952,0.2854,-0.00043927,-0.00062127,0.0,0 STARLINK-4794,1 53853U 22114AM  22315.66668981 -.00062127  00000-0 -43927-3 0  9995,2 53853  53.2146 353.4069 0004374   5.7952   0.2854 15.73301586  9011,6727.606,91.527,352.413,346.528,0.0
53853.0,STARLINK-4794,PAYLOAD,2022-11-11 22:00:00,15.73252383,0.0004133,53.215,352.1679,4.3184,338.4844,-8.8359e-05,-0.00013041,0.0,0 STARLINK-4794,1 53853U 22114AM  22315.91667824 -.00013041  00000-0 -88359-4 0  9998,2 53853  53.2150 352.1679 0004133   4.3184 338.4844 15.73252383  1303,6727.746,91.53,352.391,346.83,0.0
53853.0,STARLINK-4794,PAYLOAD,2022-11-12 08:00:01,15.73294937,0.0004204,53.2151,350.1069,0.9175,183.1143,0.0007866,0.00111747,0.0,0 STARLINK-4794,1 53853U 22114AM  22316.33334491  .00111747  00000-0  78660-3 0  9999,2 53853  53.2151 350.1069 0004204   0.9175 183.1143 15.73294937  9122,6727.625,91.528,352.3180000000001,346.661,0.0
53853.0,STARLINK-4794,PAYLOAD,2022-11-12 14:00:01,15.73388038,0.0004267,53.2149,348.8702,355.5154,165.3262,-0.00090833,-0.00127295,0.0,0 STARLINK-4794,1 53853U 22114AM  22316.58334491 -.00127295  00000-0 -90833-3 0  9999,2 53853  53.2149 348.8702 0004267 355.5154 165.3262 15.73388038  9166,6727.359,91.522,352.095,346.35400000000016,0.0
53853.0,STARLINK-4794,PAYLOAD,2022-11-12 22:00:00,15.73272069,0.0003889,53.2149,347.2182,351.9115,258.0429,-0.0005154,-0.00072594,0.0,0 STARLINK-4794,1 53853U 22114AM  22316.91667824 -.00072594  00000-0 -51540-3 0  9998,2 53853  53.2149 347.2182 0003889 351.9115 258.0429 15.73272069  1306,6727.69,91.529,352.171,346.93800000000016,0.0
53853.0,STARLINK-4794,PAYLOAD,2022-11-13 14:00:01,15.73067071,0.0004144,53.2146,343.921,4.4765,63.3706,0.00019937,0.00027301,0.0,0 STARLINK-4794,1 53853U 22114AM  22317.58334491  .00027301  00000-0  19937-3 0  9991,2 53853  53.2146 343.9210 0004144   4.4765  63.3706 15.73067071  1304,6728.274,91.541,352.927,347.351,0.0
53853.0,STARLINK-4794,PAYLOAD,2022-11-13 22:00:00,15.73045257,0.000393,53.2158,342.2674,6.8449,149.7743,0.00078418,0.00110186,0.0,0 STARLINK-4794,1 53853U 22114AM  22317.91667824  .00110186  00000-0  78418-3 0  9990,2 53853  53.2158 342.2674 0003930   6.8449 149.7743 15.73045257  1302,6728.3359999999975,91.542,352.846,347.557,0.0
53853.0,STARLINK-4794,PAYLOAD,2022-11-14 14:00:01,15.732029999999998,0.000425,53.2172,338.9663,3.3419,331.004,2.2327e-05,2.511e-05,0.0,0 STARLINK-4794,1 53853U 22114AM  22318.58334491  .00002511  00000-0  22327-4 0  9996,2 53853  53.2172 338.9663 0004250   3.3419 331.0040 15.73203000  1301,6727.887,91.533,352.611,346.892,0.0
53853.0,STARLINK-4794,PAYLOAD,2022-11-14 22:00:00,15.7320256,0.0004132,53.2174,337.3144,3.3903,59.8916,1.9914e-05,2.172e-05,0.0,0 STARLINK-4794,1 53853U 22114AM  22318.91667824  .00002172  00000-0  19914-4 0  9993,2 53853  53.2174 337.3144 0004132   3.3903  59.8916 15.73202560  1304,6727.888000000001,91.533,352.533,346.973,0.0
53853.0,STARLINK-4794,PAYLOAD,2022-11-15 02:00:01,15.73204667,0.0004119,53.2176,336.4898,3.7126,284.0351,3.7721e-06,-9.5e-07,0.0,0 STARLINK-4794,1 53853U 22114AM  22319.08334491 -.00000095  00000-0  37721-5 0  9993,2 53853  53.2176 336.4898 0004119   3.7126 284.0351 15.73204667  9558,6727.882,91.533,352.51800000000014,346.976,0.0
53853.0,STARLINK-4794,PAYLOAD,2022-11-15 08:00:01,15.73253689,0.0004099,53.2149,335.2612,5.816,258.7171,-0.00047926,-0.00067539,0.0,0 STARLINK-4794,1 53853U 22114AM  22319.33335648 -.00067539  00000-0 -47926-3 0  9999,2 53853  53.2149 335.2612 0004099   5.8160 258.7171 15.73253689  9597,6727.7419999999975,91.53,352.365,346.849,0.0
53853.0,STARLINK-4794,PAYLOAD,2022-11-15 14:00:01,15.73241899,0.000404,53.2146,334.024,3.4978,237.7565,-0.00038329,-0.00054195,0.0,0 STARLINK-4794,1 53853U 22114AM  22319.58334491 -.00054195  00000-0 -38329-3 0  9992,2 53853  53.2146 334.0240 0004040   3.4978 237.7565 15.73241899  1300,6727.776,91.531,352.3590000000001,346.923,0.0
53853.0,STARLINK-4794,PAYLOAD,2022-11-15 18:00:02,15.73226583,0.0003894,53.215,333.1979,1.7992,104.0047,-0.00042427,-0.00059842,0.0,0 STARLINK-4794,1 53853U 22114AM  22319.75002315 -.00059842  00000-0 -42427-3 0  9996,2 53853  53.2150 333.1979 0003894   1.7992 104.0047 15.73226583  9668,6727.819,91.532,352.30400000000014,347.065,0.0
53853.0,STARLINK-4794,PAYLOAD,2022-11-15 22:00:00,15.73180772,0.0003758,53.2149,332.3724,1.8599,328.3590000000001,0.0001200999999999,0.00016256,0.0,0 STARLINK-4794,1 53853U 22114AM  22319.91667824  .00016256  00000-0  12010-3 0  9991,2 53853  53.2149 332.3724 0003758   1.8599 328.3590 15.73180772  1304,6727.95,91.534,352.343,347.287,0.0
53853.0,STARLINK-4794,PAYLOAD,2022-11-16 06:00:00,15.7331846,0.000398,53.2162,330.721,5.0501,54.0569,-0.002208,-0.00301405,0.0,0 STARLINK-4794,1 53853U 22114AM  22320.25001157 -.00301405  00000-0 -22080-2 0  9993,2 53853  53.2162 330.7210 0003980   5.0501  54.0569 15.73318460  9738,6727.557,91.526,352.1,346.745,0.0
53853.0,STARLINK-4794,PAYLOAD,2022-11-16 14:00:01,15.72977519,0.0003993,53.2165,329.0697,10.7084,137.435,0.0023843,0.0034486,0.0,0 STARLINK-4794,1 53853U 22114AM  22320.58335648  .00344860  00000-0  23843-2 0  9992,2 53853  53.2165 329.0697 0003993  10.7084 137.4350 15.72977519  9799,6728.53,91.546,353.081,347.708,0.0
53853.0,STARLINK-4794,PAYLOAD,2022-11-16 20:00:01,15.7320232,0.0003898,53.2175,327.8296,13.1842,111.4696,3.0507e-05,3.661e-05,0.0,0 STARLINK-4794,1 53853U 22114AM  22320.83334491  .00003661  00000-0  30507-4 0  9993,2 53853  53.2175 327.8296 0003898  13.1842 111.4696 15.73202320  9836,6727.889,91.533,352.376,347.131,0.0
